[{"OBJECT_NAME":"ONEWEB-0205","OBJECT_ID":"2021-031S","EPOCH":"2026-06-14T07:42:47.706336","MEAN_MOTION":13.14505503,"ECCENTRICITY":0.0002104,"INCLINATION":87.8969,"RA_OF_ASC_NODE":290.2676,"ARG_OF_PERICENTER":106.7772,"MEAN_ANOMALY":253.3589,"EPHEMERIS_TYPE":0,"CLASSIFICATION_TYPE":"U","NORAD_CAT_ID":48226,"ELEMENT_SET_NO":999,"REV_AT_EPOCH":24789,"BSTAR":0.00028449000000000004,"MEAN_MOTION_DOT":1.18e-06,"MEAN_MOTION_DDOT":0.0},{"OBJECT_NAME":"ONEWEB-0206","OBJECT_ID":"2021-031T","EPOCH":"2026-06-14T07:03:59.680800","MEAN_MOTION":13.14503624,"ECCENTRICITY":0.0001811,"INCLINATION":87.8965,"RA_OF_ASC_NODE":290.2745,"ARG_OF_PERICENTER":95.9195,"MEAN_ANOMALY":264.2141,"EPHEMERIS_TYPE":0,"CLASSIFICATION_TYPE":"U","NORAD_CAT_ID":48227,"ELEMENT_SET_NO":999,"REV_AT_EPOCH":24784,"BSTAR":-0.00043223000000000003,"MEAN_MOTION_DOT":-1.47e-06,"MEAN_MOTION_DDOT":0.0},{"OBJECT_NAME":"ONEWEB-0182","OBJECT_ID":"2021-031U","EPOCH":"2026-06-14T06:57:08.869536","MEAN_MOTION":13.14502198,"ECCENTRICITY":0.0002081,"INCLINATION":87.8962,"RA_OF_ASC_NODE":290.283,"ARG_OF_PERICENTER":95.7997,"MEAN_ANOMALY":264.337,"EPHEMERIS_TYPE":0,"CLASSIFICATION_TYPE":"U","NORAD_CAT_ID":48228,"ELEMENT_SET_NO":999,"REV_AT_EPOCH":24805,"BSTAR":-0.00038995,"MEAN_MOTION_DOT":-1.32e-06,"MEAN_MOTION_DDOT":0.0},{"OBJECT_NAME":"ONEWEB-0186","OBJECT_ID":"2021-031V","EPOCH":"2026-06-14T01:44:18.009888","MEAN_MOTION":13.14502671,"ECCENTRICITY":0.0002014,"INCLINATION":87.8971,"RA_OF_ASC_NODE":290.3168,"ARG_OF_PERICENTER":102.8625,"MEAN_ANOMALY":257.273,"EPHEMERIS_TYPE":0,"CLASSIFICATION_TYPE":"U","NORAD_CAT_ID":48229,"ELEMENT_SET_NO":999,"REV_AT_EPOCH":24797,"BSTAR":-0.00060758,"MEAN_MOTION_DOT":-2.12e-06,"MEAN_MOTION_DDOT":0.0},{"OBJECT_NAME":"ONEWEB-0181","OBJECT_ID":"2021-031W","EPOCH":"2026-06-14T06:41:10.053312","MEAN_MOTION":13.14502949,"ECCENTRICITY":0.0001965,"INCLINATION":87.8952,"RA_OF_ASC_NODE":290.3057,"ARG_OF_PERICENTER":106.8123,"MEAN_ANOMALY":253.3223,"EPHEMERIS_TYPE":0,"CLASSIFICATION_TYPE":"U","NORAD_CAT_ID":48230,"ELEMENT_SET_NO":999,"REV_AT_EPOCH":24785,"BSTAR":1.8325e-05,"MEAN_MOTION_DOT":2e-07,"MEAN_MOTION_DDOT":0.0},{"OBJECT_NAME":"ONEWEB-0188","OBJECT_ID":"2021-031X","EPOCH":"2026-06-14T07:35:57.893856","MEAN_MOTION":13.14504299,"ECCENTRICITY":0.0001957,"INCLINATION":87.8953,"RA_OF_ASC_NODE":290.2973,"ARG_OF_PERICENTER":101.019,"MEAN_ANOMALY":259.116,"EPHEMERIS_TYPE":0,"CLASSIFICATION_TYPE":"U","NORAD_CAT_ID":48231,"ELEMENT_SET_NO":999,"REV_AT_EPOCH":24776,"BSTAR":9.7965e-05,"MEAN_MOTION_DOT":4.9e-07,"MEAN_MOTION_DDOT":0.0},{"OBJECT_NAME":"ONEWEB-0220","OBJECT_ID":"2021-031Y","EPOCH":"2026-06-14T06:43:25.829184","MEAN_MOTION":13.14501801,"ECCENTRICITY":0.0002198,"INCLINATION":87.8971,"RA_OF_ASC_NODE":290.2771,"ARG_OF_PERICENTER":104.6993,"MEAN_ANOMALY":255.438,"EPHEMERIS_TYPE":0,"CLASSIFICATION_TYPE":"U","NORAD_CAT_ID":48232,"ELEMENT_SET_NO":999,"REV_AT_EPOCH":24802,"BSTAR":1.1211000000000002e-06,"MEAN_MOTION_DOT":1.3e-07,"MEAN_MOTION_DDOT":0.0},{"OBJECT_NAME":"ONEWEB-0165","OBJECT_ID":"2021-031Z","EPOCH":"2026-06-14T07:24:32.482656","MEAN_MOTION":13.14502289,"ECCENTRICITY":0.0001925,"INCLINATION":87.8962,"RA_OF_ASC_NODE":290.2846,"ARG_OF_PERICENTER":112.6581,"MEAN_ANOMALY":247.4753,"EPHEMERIS_TYPE":0,"CLASSIFICATION_TYPE":"U","NORAD_CAT_ID":48233,"ELEMENT_SET_NO":999,"REV_AT_EPOCH":24798,"BSTAR":-0.00028697,"MEAN_MOTION_DOT":-9.4e-07,"MEAN_MOTION_DDOT":0.0},{"OBJECT_NAME":"ONEWEB-0199","OBJECT_ID":"2021-031AA","EPOCH":"2026-06-14T07:01:42.749760","MEAN_MOTION":13.14503486,"ECCENTRICITY":0.0001857,"INCLINATION":87.897,"RA_OF_ASC_NODE":290.2734,"ARG_OF_PERICENTER":95.0021,"MEAN_ANOMALY":265.1321,"EPHEMERIS_TYPE":0,"CLASSIFICATION_TYPE":"U","NORAD_CAT_ID":48234,"ELEMENT_SET_NO":999,"REV_AT_EPOCH":24788,"BSTAR":-0.0004919,"MEAN_MOTION_DOT":-1.7e-06,"MEAN_MOTION_DDOT":0.0},{"OBJECT_NAME":"ONEWEB-0203","OBJECT_ID":"2021-031AB","EPOCH":"2026-06-14T06:48:01.057248","MEAN_MOTION":13.14502586,"ECCENTRICITY":0.0001743,"INCLINATION":87.8969,"RA_OF_ASC_NODE":290.2785,"ARG_OF_PERICENTER":102.1499,"MEAN_ANOMALY":257.9826,"EPHEMERIS_TYPE":0,"CLASSIFICATION_TYPE":"U","NORAD_CAT_ID":48235,"ELEMENT_SET_NO":999,"REV_AT_EPOCH":24789,"BSTAR":-0.00015261,"MEAN_MOTION_DOT":-4.4e-07,"MEAN_MOTION_DDOT":0.0},{"OBJECT_NAME":"ONEWEB-0197","OBJECT_ID":"2021-031AC","EPOCH":"2026-06-14T02:32:03.641280","MEAN_MOTION":13.1450403,"ECCENTRICITY":0.0002177,"INCLINATION":87.8957,"RA_OF_ASC_NODE":290.3006,"ARG_OF_PERICENTER":98.0125,"MEAN_ANOMALY":262.1252,"EPHEMERIS_TYPE":0,"CLASSIFICATION_TYPE":"U","NORAD_CAT_ID":48236,"ELEMENT_SET_NO":999,"REV_AT_EPOCH":24778,"BSTAR":0.00064616,"MEAN_MOTION_DOT":2.52e-06,"MEAN_MOTION_DDOT":0.0},{"OBJECT_NAME":"ONEWEB-0194","OBJECT_ID":"2021-031AD","EPOCH":"2026-06-14T07:31:24.136320","MEAN_MOTION":13.14502733,"ECCENTRICITY":0.0001714,"INCLINATION":87.8963,"RA_OF_ASC_NODE":290.281,"ARG_OF_PERICENTER":97.2857,"MEAN_ANOMALY":262.8467,"EPHEMERIS_TYPE":0,"CLASSIFICATION_TYPE":"U","NORAD_CAT_ID":48237,"ELEMENT_SET_NO":999,"REV_AT_EPOCH":24798,"BSTAR":-4.3265e-05,"MEAN_MOTION_DOT":-3e-08,"MEAN_MOTION_DDOT":0.0},{"OBJECT_NAME":"ONEWEB-0193","OBJECT_ID":"2021-031AE","EPOCH":"2026-06-14T06:04:37.578144","MEAN_MOTION":13.14503056,"ECCENTRICITY":0.0001552,"INCLINATION":87.896,"RA_OF_ASC_NODE":290.2836,"ARG_OF_PERICENTER":92.087,"MEAN_ANOMALY":268.0438,"EPHEMERIS_TYPE":0,"CLASSIFICATION_TYPE":"U","NORAD_CAT_ID":48238,"ELEMENT_SET_NO":999,"REV_AT_EPOCH":24792,"BSTAR":0.00058602,"MEAN_MOTION_DOT":2.3e-06,"MEAN_MOTION_DDOT":0.0},{"OBJECT_NAME":"ONEWEB-0191","OBJECT_ID":"2021-031AF","EPOCH":"2026-06-14T06:20:37.165056","MEAN_MOTION":13.14502769,"ECCENTRICITY":0.0002051,"INCLINATION":87.8969,"RA_OF_ASC_NODE":290.2797,"ARG_OF_PERICENTER":96.264,"MEAN_ANOMALY":263.8723,"EPHEMERIS_TYPE":0,"CLASSIFICATION_TYPE":"U","NORAD_CAT_ID":48239,"ELEMENT_SET_NO":999,"REV_AT_EPOCH":24778,"BSTAR":0.00059815,"MEAN_MOTION_DOT":2.35e-06,"MEAN_MOTION_DDOT":0.0},{"OBJECT_NAME":"ONEWEB-0195","OBJECT_ID":"2021-031AG","EPOCH":"2026-06-14T07:37:05.932992","MEAN_MOTION":13.14501868,"ECCENTRICITY":0.0001992,"INCLINATION":87.8967,"RA_OF_ASC_NODE":290.27,"ARG_OF_PERICENTER":112.1027,"MEAN_ANOMALY":248.0314,"EPHEMERIS_TYPE":0,"CLASSIFICATION_TYPE":"U","NORAD_CAT_ID":48240,"ELEMENT_SET_NO":999,"REV_AT_EPOCH":24777,"BSTAR":0.00019977000000000002,"MEAN_MOTION_DOT":8.7e-07,"MEAN_MOTION_DDOT":0.0},{"OBJECT_NAME":"ONEWEB-0201","OBJECT_ID":"2021-031AH","EPOCH":"2026-06-14T01:51:20.232864","MEAN_MOTION":13.14503983,"ECCENTRICITY":0.0002234,"INCLINATION":87.8958,"RA_OF_ASC_NODE":290.334,"ARG_OF_PERICENTER":99.0911,"MEAN_ANOMALY":261.0472,"EPHEMERIS_TYPE":0,"CLASSIFICATION_TYPE":"U","NORAD_CAT_ID":48241,"ELEMENT_SET_NO":999,"REV_AT_EPOCH":24797,"BSTAR":-0.00061935,"MEAN_MOTION_DOT":-2.17e-06,"MEAN_MOTION_DDOT":0.0}]