ONEWEB-0205             
1 48226U 21031S   26165.32138549  .00000118  00000+0  28449-3 0  9993
2 48226  87.8969 290.2676 0002104 106.7772 253.3589 13.14505503247892
ONEWEB-0206             
1 48227U 21031T   26165.29444075 -.00000147  00000+0 -43223-3 0  9995
2 48227  87.8965 290.2745 0001811  95.9195 264.2141 13.14503624247840
ONEWEB-0182             
1 48228U 21031U   26165.28968599 -.00000132  00000+0 -38995-3 0  9991
2 48228  87.8962 290.2830 0002081  95.7997 264.3370 13.14502198248055
ONEWEB-0186             
1 48229U 21031V   26165.07243067 -.00000212  00000+0 -60758-3 0  9996
2 48229  87.8971 290.3168 0002014 102.8625 257.2730 13.14502671247972
ONEWEB-0181             
1 48230U 21031W   26165.27858858  .00000020  00000+0  18325-4 0  9999
2 48230  87.8952 290.3057 0001965 106.8123 253.3223 13.14502949247850
ONEWEB-0188             
1 48231U 21031X   26165.31664229  .00000049  00000+0  97965-4 0  9990
2 48231  87.8953 290.2973 0001957 101.0190 259.1160 13.14504299247764
ONEWEB-0220             
1 48232U 21031Y   26165.28016006  .00000013  00000+0  11211-5 0  9993
2 48232  87.8971 290.2771 0002198 104.6993 255.4380 13.14501801248028
ONEWEB-0165             
1 48233U 21031Z   26165.30870929 -.00000094  00000+0 -28697-3 0  9994
2 48233  87.8962 290.2846 0001925 112.6581 247.4753 13.14502289247981
ONEWEB-0199             
1 48234U 21031AA  26165.29285590 -.00000170  00000+0 -49190-3 0  9993
2 48234  87.8970 290.2734 0001857  95.0021 265.1321 13.14503486247881
ONEWEB-0203             
1 48235U 21031AB  26165.28334557 -.00000044  00000+0 -15261-3 0  9993
2 48235  87.8969 290.2785 0001743 102.1499 257.9826 13.14502586247899
ONEWEB-0197             
1 48236U 21031AC  26165.10559770  .00000252  00000+0  64616-3 0  9998
2 48236  87.8957 290.3006 0002177  98.0125 262.1252 13.14504030247780
ONEWEB-0194             
1 48237U 21031AD  26165.31347380 -.00000003  00000+0 -43265-4 0  9998
2 48237  87.8963 290.2810 0001714  97.2857 262.8467 13.14502733247984
ONEWEB-0193             
1 48238U 21031AE  26165.25321271  .00000230  00000+0  58602-3 0  9993
2 48238  87.8960 290.2836 0001552  92.0870 268.0438 13.14503056247927
ONEWEB-0191             
1 48239U 21031AF  26165.26431904  .00000235  00000+0  59815-3 0  9992
2 48239  87.8969 290.2797 0002051  96.2640 263.8723 13.14502769247783
ONEWEB-0195             
1 48240U 21031AG  26165.31742978  .00000087  00000+0  19977-3 0  9996
2 48240  87.8967 290.2700 0001992 112.1027 248.0314 13.14501868247776
ONEWEB-0201             
1 48241U 21031AH  26165.07731751 -.00000217  00000+0 -61935-3 0  9995
2 48241  87.8958 290.3340 0002234  99.0911 261.0472 13.14503983247975
